{
  "type": "FeatureCollection",
  "features": [
    {
      "type": "Feature",
      "properties": {
        "norad_id": 44794,
        "name": "BEIDOU-3 M21 (C43)",
        "group": "beidou",
        "lat": 24.119564870648563,
        "lon": -35.18182468789419,
        "alt_km": 21514.08002422698,
        "timestamp": "2025-12-25T07:00:34.311487+00:00",
        "meta_object_name": "BEIDOU-3 M21 (C43)",
        "meta_object_id": "2019-078B",
        "meta_epoch": "2025-12-24T04:09:05.806368",
        "meta_mean_motion": 1.86227908,
        "meta_eccentricity": 0.00042661,
        "meta_inclination": 54.0712,
        "meta_ra_of_asc_node": 305.9502,
        "meta_arg_of_pericenter": 12.8462,
        "meta_mean_anomaly": 347.1724,
        "meta_ephemeris_type": 0,
        "meta_classification_type": "U",
        "meta_norad_cat_id": 44794,
        "meta_element_set_no": 999,
        "meta_rev_at_epoch": 4139,
        "meta_bstar": 0,
        "meta_mean_motion_dot": -5.2e-07,
        "meta_mean_motion_ddot": 0,
        "tle_line1": "1 44794U 19078B   25358.17298387 -.00000052  00000+0  00000+0 0  9997",
        "tle_line2": "2 44794  54.0712 305.9502 0004266  12.8462 347.1724  1.86227908 41392"
      },
      "geometry": {
        "type": "Point",
        "coordinates": [
          -35.18182468789419,
          24.119564870648563
        ]
      }
    },
    {
      "type": "Feature",
      "properties": {
        "norad_id": 44864,
        "name": "BEIDOU-3 M19 (C41)",
        "group": "beidou",
        "lat": -36.79931556323538,
        "lon": -81.65703187368347,
        "alt_km": 21506.168738634482,
        "timestamp": "2025-12-25T07:00:34.311498+00:00",
        "meta_object_name": "BEIDOU-3 M19 (C41)",
        "meta_object_id": "2019-090A",
        "meta_epoch": "2025-12-24T13:05:33.212256",
        "meta_mean_motion": 1.86231537,
        "meta_eccentricity": 0.00184016,
        "meta_inclination": 56.4026,
        "meta_ra_of_asc_node": 68.5704,
        "meta_arg_of_pericenter": 285.2046,
        "meta_mean_anomaly": 160.4424,
        "meta_ephemeris_type": 0,
        "meta_classification_type": "U",
        "meta_norad_cat_id": 44864,
        "meta_element_set_no": 999,
        "meta_rev_at_epoch": 4098,
        "meta_bstar": 0,
        "meta_mean_motion_dot": -2.5e-07,
        "meta_mean_motion_ddot": 0,
        "tle_line1": "1 44864U 19090A   25358.54552329 -.00000025  00000+0  00000+0 0  9999",
        "tle_line2": "2 44864  56.4026  68.5704 0018401 285.2046 160.4424  1.86231537 40980"
      },
      "geometry": {
        "type": "Point",
        "coordinates": [
          -81.65703187368347,
          -36.79931556323538
        ]
      }
    },
    {
      "type": "Feature",
      "properties": {
        "norad_id": 44865,
        "name": "BEIDOU-3 M20 (C42)",
        "group": "beidou",
        "lat": -35.516897573539225,
        "lon": 40.313315147925955,
        "alt_km": 21491.342212829255,
        "timestamp": "2025-12-25T07:00:34.311510+00:00",
        "meta_object_name": "BEIDOU-3 M20 (C42)",
        "meta_object_id": "2019-090B",
        "meta_epoch": "2025-12-24T09:14:17.322144",
        "meta_mean_motion": 1.86231611,
        "meta_eccentricity": 0.00155264,
        "meta_inclination": 56.4041,
        "meta_ra_of_asc_node": 68.61,
        "meta_arg_of_pericenter": 297.3537,
        "meta_mean_anomaly": 130.233,
        "meta_ephemeris_type": 0,
        "meta_classification_type": "U",
        "meta_norad_cat_id": 44865,
        "meta_element_set_no": 999,
        "meta_rev_at_epoch": 4096,
        "meta_bstar": 0,
        "meta_mean_motion_dot": -2.4e-07,
        "meta_mean_motion_ddot": 0,
        "tle_line1": "1 44865U 19090B   25358.38492271 -.00000024  00000+0  00000+0 0  9990",
        "tle_line2": "2 44865  56.4041  68.6100 0015526 297.3537 130.2330  1.86231611 40965"
      },
      "geometry": {
        "type": "Point",
        "coordinates": [
          40.313315147925955,
          -35.516897573539225
        ]
      }
    },
    {
      "type": "Feature",
      "properties": {
        "norad_id": 45344,
        "name": "BEIDOU-3 G2 (C60)",
        "group": "beidou",
        "lat": -2.085607184917617,
        "lon": -80.78901660708084,
        "alt_km": 35777.26106995961,
        "timestamp": "2025-12-25T07:00:34.311522+00:00",
        "meta_object_name": "BEIDOU-3 G2 (C60)",
        "meta_object_id": "2020-017A",
        "meta_epoch": "2025-12-24T22:45:15.683616",
        "meta_mean_motion": 1.00272341,
        "meta_eccentricity": 0.00021155,
        "meta_inclination": 2.5185,
        "meta_ra_of_asc_node": 44.1137,
        "meta_arg_of_pericenter": 237.1271,
        "meta_mean_anomaly": 233.8352,
        "meta_ephemeris_type": 0,
        "meta_classification_type": "U",
        "meta_norad_cat_id": 45344,
        "meta_element_set_no": 999,
        "meta_rev_at_epoch": 2151,
        "meta_bstar": 0,
        "meta_mean_motion_dot": -1.2e-06,
        "meta_mean_motion_ddot": 0,
        "tle_line1": "1 45344U 20017A   25358.94809819 -.00000120  00000+0  00000+0 0  9993",
        "tle_line2": "2 45344   2.5185  44.1137 0002115 237.1271 233.8352  1.00272341 21510"
      },
      "geometry": {
        "type": "Point",
        "coordinates": [
          -80.78901660708084,
          -2.085607184917617
        ]
      }
    },
    {
      "type": "Feature",
      "properties": {
        "norad_id": 45807,
        "name": "BEIDOU-3 G3 (C61)",
        "group": "beidou",
        "lat": -1.817374104165161,
        "lon": -50.361796534227686,
        "alt_km": 35776.258011632024,
        "timestamp": "2025-12-25T07:00:34.311534+00:00",
        "meta_object_name": "BEIDOU-3 G3 (C61)",
        "meta_object_id": "2020-040A",
        "meta_epoch": "2025-12-24T22:11:03.869376",
        "meta_mean_motion": 1.00267778,
        "meta_eccentricity": 0.00065864,
        "meta_inclination": 2.0187,
        "meta_ra_of_asc_node": 66.6838,
        "meta_arg_of_pericenter": 308.9241,
        "meta_mean_anomaly": 161.3844,
        "meta_ephemeris_type": 0,
        "meta_classification_type": "U",
        "meta_norad_cat_id": 45807,
        "meta_element_set_no": 999,
        "meta_rev_at_epoch": 2032,
        "meta_bstar": 0,
        "meta_mean_motion_dot": -3.33e-06,
        "meta_mean_motion_ddot": 0,
        "tle_line1": "1 45807U 20040A   25358.92435034 -.00000333  00000+0  00000+0 0  9991",
        "tle_line2": "2 45807   2.0187  66.6838 0006586 308.9241 161.3844  1.00267778 20325"
      },
      "geometry": {
        "type": "Point",
        "coordinates": [
          -50.361796534227686,
          -1.817374104165161
        ]
      }
    },
    {
      "type": "Feature",
      "properties": {
        "norad_id": 56564,
        "name": "BEIDOU-3 G4 (C62)",
        "group": "beidou",
        "lat": 0.6519705255960863,
        "lon": -0.7635484884931161,
        "alt_km": 35796.98138025236,
        "timestamp": "2025-12-25T07:00:34.311546+00:00",
        "meta_object_name": "BEIDOU-3 G4 (C62)",
        "meta_object_id": "2023-066A",
        "meta_epoch": "2025-12-24T22:25:17.507424",
        "meta_mean_motion": 1.00270898,
        "meta_eccentricity": 0.00025764,
        "meta_inclination": 0.7896,
        "meta_ra_of_asc_node": 302.9846,
        "meta_arg_of_pericenter": 228.9181,
        "meta_mean_anomaly": 58.1769,
        "meta_ephemeris_type": 0,
        "meta_classification_type": "U",
        "meta_norad_cat_id": 56564,
        "meta_element_set_no": 999,
        "meta_rev_at_epoch": 964,
        "meta_bstar": 0,
        "meta_mean_motion_dot": -9e-07,
        "meta_mean_motion_ddot": 0,
        "tle_line1": "1 56564U 23066A   25358.93423041 -.00000090  00000+0  00000+0 0  9990",
        "tle_line2": "2 56564   0.7896 302.9846 0002576 228.9181  58.1769  1.00270898  9641"
      },
      "geometry": {
        "type": "Point",
        "coordinates": [
          -0.7635484884931161,
          0.6519705255960863
        ]
      }
    },
    {
      "type": "Feature",
      "properties": {
        "norad_id": 58654,
        "name": "BEIDOU-3 M28 (C50)",
        "group": "beidou",
        "lat": -18.10444839212618,
        "lon": 55.26323116000389,
        "alt_km": 21527.06200557567,
        "timestamp": "2025-12-25T07:00:34.311561+00:00",
        "meta_object_name": "BEIDOU-3 M28 (C50)",
        "meta_object_id": "2023-207A",
        "meta_epoch": "2025-12-23T17:08:25.533024",
        "meta_mean_motion": 1.86229696,
        "meta_eccentricity": 0.00028713,
        "meta_inclination": 55.5937,
        "meta_ra_of_asc_node": 68.2298,
        "meta_arg_of_pericenter": 275.1516,
        "meta_mean_anomaly": 84.8693,
        "meta_ephemeris_type": 0,
        "meta_classification_type": "U",
        "meta_norad_cat_id": 58654,
        "meta_element_set_no": 999,
        "meta_rev_at_epoch": 1357,
        "meta_bstar": 0,
        "meta_mean_motion_dot": -2.6e-07,
        "meta_mean_motion_ddot": 0,
        "tle_line1": "1 58654U 23207A   25357.71418441 -.00000026  00000+0  00000+0 0  9991",
        "tle_line2": "2 58654  55.5937  68.2298 0002871 275.1516  84.8693  1.86229696 13577"
      },
      "geometry": {
        "type": "Point",
        "coordinates": [
          55.26323116000389,
          -18.10444839212618
        ]
      }
    }
  ]
}